NORAD_CAT_ID,OBJECT_NAME,OBJECT_TYPE,EPOCH,MEAN_MOTION,ECCENTRICITY,INCLINATION,RA_OF_ASC_NODE,ARG_OF_PERICENTER,MEAN_ANOMALY,BSTAR,MEAN_MOTION_DOT,MEAN_MOTION_DDOT,TLE_LINE0,TLE_LINE1,TLE_LINE2,SEMIMAJOR_AXIS,PERIOD,APOGEE,PERIGEE,DECAYED
54802.0,STARLINK-5426,PAYLOAD,2024-03-12 19:34:10,15.08837688,0.0001882,53.2174,11.6418,86.4206,273.7001,0.0001262,1.721e-05,0.0,0 STARLINK-5426,1 54802U 22175AW  24072.81540124  .00001721  00000-0  12620-3 0  9991,2 54802  53.2174  11.6418 0001882  86.4206 273.7001 15.08837688 70965,6917.887,95.438,541.054,538.451,0.0
54802.0,STARLINK-5426,PAYLOAD,2024-03-13 03:31:06,15.08840732,0.0001554,53.218,10.1568,86.1369,273.9801,0.00018649,2.681e-05,0.0,0 STARLINK-5426,1 54802U 22175AW  24073.14660047  .00002681  00000-0  18649-3 0  9998,2 54802  53.2180  10.1568 0001554  86.1369 273.9801 15.08840732 68854,6917.878,95.438,540.818,538.668,0.0
54802.0,STARLINK-5426,PAYLOAD,2024-03-13 13:03:25,15.08846167,0.0001559,53.2182,8.3733,85.3763,274.7407,0.00032034,4.815e-05,0.0,0 STARLINK-5426,1 54802U 22175AW  24073.54403974  .00004815  00000-0  32034-3 0  9991,2 54802  53.2182   8.3733 0001559  85.3763 274.7407 15.08846167 71070,6917.862,95.437,540.805,538.648,0.0
54802.0,STARLINK-5426,PAYLOAD,2024-03-13 19:24:57,15.08846421,0.0001565,53.2185,7.1848,83.687,276.43,0.00032233,4.846e-05,0.0,0 STARLINK-5426,1 54802U 22175AW  24073.80899999  .00004846  00000-0  32233-3 0  9991,2 54802  53.2185   7.1848 0001565  83.6870 276.4300 15.08846421 68951,6917.861,95.437,540.808,538.643,0.0
54802.0,STARLINK-5426,PAYLOAD,2024-03-14 01:46:30,15.08848908,0.0001674,53.2183,5.9958,80.7126,279.4055,0.0004555,6.97e-05,0.0,0 STARLINK-5426,1 54802U 22175AW  24074.07395940  .00006970  00000-0  45550-3 0  9994,2 54802  53.2183   5.9958 0001674  80.7126 279.4055 15.08848908 68996,6917.853,95.437,540.876,538.56,0.0
54802.0,STARLINK-5426,PAYLOAD,2024-03-14 04:57:15,15.08857182,0.0001472,53.2172,5.398,97.7488,262.3671,0.00054359,8.378e-05,0.0,0 STARLINK-5426,1 54802U 22175AW  24074.20643444  .00008378  00000-0  54359-3 0  9995,2 54802  53.2172   5.3980 0001472  97.7488 262.3671 15.08857182 69011,6917.828,95.436,540.711,538.675,0.0
54802.0,STARLINK-5426,PAYLOAD,2024-03-14 22:26:30,15.08840557,0.0001396,53.2186,2.1302,83.5833,276.5318,0.00011808,1.592e-05,0.0,0 STARLINK-5426,1 54802U 22175AW  24074.93508085  .00001592  00000-0  11808-3 0  9999,2 54802  53.2186   2.1302 0001396  83.5833 276.5318 15.08840557 71286,6917.879,95.438,540.709,538.778,0.0
54802.0,STARLINK-5426,PAYLOAD,2024-03-15 01:37:17,15.08843863,0.0001491,53.2184,1.5347,91.0789,269.0374,0.00022877,3.355e-05,0.0,0 STARLINK-5426,1 54802U 22175AW  24075.06755999  .00003355  00000-0  22877-3 0  9999,2 54802  53.2184   1.5347 0001491  91.0789 269.0374 15.08843863 69140,6917.869,95.437,540.765,538.702,0.0
54802.0,STARLINK-5426,PAYLOAD,2024-03-15 19:06:31,15.08840747,0.0001516,53.2182,358.2629,87.0992,273.0174,0.00026926,4e-05,0.0,0 STARLINK-5426,1 54802U 22175AW  24075.79620298  .00004000  00000-0  26926-3 0  9999,2 54802  53.2182 358.2629 0001516  87.0992 273.0174 15.08840747 69255,6917.878,95.438,540.792,538.694,0.0
54802.0,STARLINK-5426,PAYLOAD,2024-03-15 22:17:18,15.088403,0.0001557,53.2185,357.6684,100.2006,259.9162,0.00025192,3.724e-05,0.0,0 STARLINK-5426,1 54802U 22175AW  24075.92868257  .00003724  00000-0  25192-3 0  9999,2 54802  53.2185 357.6684 0001557 100.2006 259.9162 15.08840300 71439,6917.879,95.438,540.822,538.667,0.0
54802.0,STARLINK-5426,PAYLOAD,2024-03-16 01:28:04,15.08842817,0.0001513,53.2187,357.0727,99.3815,260.7348,0.0002067,3.003e-05,0.0,0 STARLINK-5426,1 54802U 22175AW  24076.06116158  .00003003  00000-0  20670-3 0  9997,2 54802  53.2187 357.0727 0001513  99.3815 260.7348 15.08842817 69293,6917.872,95.437,540.783,538.69,0.0
54802.0,STARLINK-5426,PAYLOAD,2024-03-16 18:57:19,15.08839786,0.0001627,53.2191,353.8039,106.4672,253.6499,0.00015637,2.201e-05,0.0,0 STARLINK-5426,1 54802U 22175AW  24076.78980397  .00002201  00000-0  15637-3 0  9996,2 54802  53.2191 353.8039 0001627 106.4672 253.6499 15.08839786 69407,6917.881,95.438,540.872,538.621,0.0
54802.0,STARLINK-5426,PAYLOAD,2024-03-16 22:08:05,15.0884166,0.0001658,53.2192,353.21,110.3171,249.7999,0.00016994,2.418e-05,0.0,0 STARLINK-5426,1 54802U 22175AW  24076.92228297  .00002418  00000-0  16994-3 0  9993,2 54802  53.2192 353.2100 0001658 110.3171 249.7999 15.08841660 71580,6917.875,95.437,540.887,538.593,0.0
54802.0,STARLINK-5426,PAYLOAD,2024-03-17 01:18:51,15.08843286,0.0001633,53.2192,352.6154,108.2474,251.8696,0.00018365,2.636e-05,0.0,0 STARLINK-5426,1 54802U 22175AW  24077.05476209  .00002636  00000-0  18365-3 0  9992,2 54802  53.2192 352.6154 0001633 108.2474 251.8696 15.08843286 69443,6917.87,95.437,540.865,538.606,0.0
54802.0,STARLINK-5426,PAYLOAD,2024-03-17 17:12:42,15.08843542,0.000166,53.2192,349.6426,110.0962,250.0209,0.00015564,2.19e-05,0.0,0 STARLINK-5426,1 54802U 22175AW  24077.71716093  .00002190  00000-0  15564-3 0  9996,2 54802  53.2192 349.6426 0001660 110.0962 250.0209 15.08843542 69541,6917.87,95.437,540.883,538.586,0.0
54802.0,STARLINK-5426,PAYLOAD,2024-03-17 21:58:52,15.0884198,0.0001645,53.2189,348.7486,111.5785,248.5382,0.00010679,1.412e-05,0.0,0 STARLINK-5426,1 54802U 22175AW  24077.91588144  .00001412  00000-0  10679-3 0  9990,2 54802  53.2189 348.7486 0001645 111.5785 248.5382 15.08841980 71737,6917.874,95.437,540.877,538.601,0.0
54802.0,STARLINK-5426,PAYLOAD,2024-03-18 02:45:01,15.08851473,0.0001712,53.2188,347.8549,107.9646,252.1533,0.00011355,1.52e-05,0.0,0 STARLINK-5426,1 54802U 22175AW  24078.11459614  .00001520  00000-0  11355-3 0  9994,2 54802  53.2188 347.8549 0001712 107.9646 252.1533 15.08851473 69606,6917.845,95.437,540.895,538.526,0.0
54802.0,STARLINK-5426,PAYLOAD,2024-03-18 21:49:39,15.08840485,0.000141,53.2189,344.2882,106.2262,253.8885,2.4096e-05,9.6e-07,0.0,0 STARLINK-5426,1 54802U 22175AW  24078.90948177  .00000096  00000-0  24096-4 0  9992,2 54802  53.2189 344.2882 0001410 106.2262 253.8885 15.08840485 71881,6917.879,95.438,540.719,538.768,0.0
54802.0,STARLINK-5426,PAYLOAD,2024-03-19 01:00:25,15.08842091,0.0001406,53.2187,343.6934,90.4445,269.6708,5.5971e-05,6.03e-06,0.0,0 STARLINK-5426,1 54802U 22175AW  24079.04196183  .00000603  00000-0  55971-4 0  9990,2 54802  53.2187 343.6934 0001406  90.4445 269.6708 15.08842091 69748,6917.874,95.437,540.712,538.766,0.0
54802.0,STARLINK-5426,PAYLOAD,2024-03-19 21:40:25,15.08853841,0.0001487,53.219,339.8297,67.3447,292.7702,0.00024886,3.676e-05,0.0,0 STARLINK-5426,1 54802U 22175AW  24079.90307652  .00003676  00000-0  24886-3 0  9993,2 54802  53.2190 339.8297 0001487  67.3447 292.7702 15.08853841 69875,6917.838,95.437,540.732,538.674,0.0
54802.0,STARLINK-5426,PAYLOAD,2024-03-20 00:51:11,15.08861201,0.0001395,53.2171,339.2306,85.0787,275.0364,0.00041698,6.358e-05,0.0,0 STARLINK-5426,1 54802U 22175AW  24080.03555356  .00006358  00000-0  41698-3 0  9995,2 54802  53.2171 339.2306 0001395  85.0787 275.0364 15.08861201 69890,6917.816,95.436,540.646,538.716,0.0
54802.0,STARLINK-5426,PAYLOAD,2024-03-20 21:31:13,15.08837434,0.0001385,53.2169,335.3697,73.9761,286.1384,6.9938e-05,8.25e-06,0.0,0 STARLINK-5426,1 54802U 22175AW  24080.89668528  .00000825  00000-0  69938-4 0  9996,2 54802  53.2169 335.3697 0001385  73.9761 286.1384 15.08837434 72186,6917.888,95.438,540.711,538.795,0.0
54802.0,STARLINK-5426,PAYLOAD,2024-03-21 02:17:22,15.08838241,0.0001227,53.2166,334.4732,102.7375,257.3754,0.00019359,2.794e-05,0.0,0 STARLINK-5426,1 54802U 22175AW  24081.09540356  .00002794  00000-0  19359-3 0  9995,2 54802  53.2166 334.4732 0001227 102.7375 257.3754 15.08838241 70052,6917.886,95.438,540.6,538.902,0.0
54802.0,STARLINK-5426,PAYLOAD,2024-03-21 10:14:18,15.08836239,0.0001284,53.2171,332.9836,96.2042,263.9097,0.00027768,4.134e-05,0.0,0 STARLINK-5426,1 54802U 22175AW  24081.42660668  .00004134  00000-0  27768-3 0  9994,2 54802  53.2171 332.9836 0001284  96.2042 263.9097 15.08836239 70101,6917.892,95.438,540.645,538.869,0.0
54802.0,STARLINK-5426,PAYLOAD,2024-03-21 21:22:00,15.08852931,0.0001267,53.2167,330.9035,82.0211,278.0925,0.00080817,0.00012602,0.0,0 STARLINK-5426,1 54802U 22175AW  24081.89028470  .00012602  00000-0  80817-3 0  9997,2 54802  53.2167 330.9035 0001267  82.0211 278.0925 15.08852931 72338,6917.841,95.437,540.582,538.829,0.0
54802.0,STARLINK-5426,PAYLOAD,2024-03-21 22:57:23,15.08859574,0.0001449,53.2173,330.6078,74.1512,285.964,0.00099491,0.0001559,0.0,0 STARLINK-5426,1 54802U 22175AW  24081.95652404  .00015590  00000-0  99491-3 0  9991,2 54802  53.2173 330.6078 0001449  74.1512 285.9640 15.08859574 70189,6917.821,95.436,540.688,538.683,0.0
54802.0,STARLINK-5426,PAYLOAD,2024-03-22 19:37:24,15.08855351,0.000108,53.2173,326.7396,83.2381,276.8735,0.0004444,6.795e-05,0.0,0 STARLINK-5426,1 54802U 22175AW  24082.81763949  .00006795  00000-0  44440-3 0  9995,2 54802  53.2173 326.7396 0001080  83.2381 276.8735 15.08855351 70312,6917.833,95.437,540.446,538.951,0.0
54802.0,STARLINK-5426,PAYLOAD,2024-03-22 22:48:10,15.08856186,0.0001145,53.2171,326.1446,92.701,267.4113,0.00042658,6.511e-05,0.0,0 STARLINK-5426,1 54802U 22175AW  24082.95011793  .00006511  00000-0  42658-3 0  9998,2 54802  53.2171 326.1446 0001145  92.7010 267.4113 15.08856186 72490,6917.831,95.437,540.488,538.904,0.0
54802.0,STARLINK-5426,PAYLOAD,2024-03-23 01:58:56,15.08857232,0.0001157,53.2171,325.5499,94.844,265.2684,0.00039925,6.075e-05,0.0,0 STARLINK-5426,1 54802U 22175AW  24083.08259649  .00006075  00000-0  39925-3 0  9995,2 54802  53.2171 325.5499 0001157  94.8440 265.2684 15.08857232 70359,6917.828,95.436,540.493,538.892,0.0
54802.0,STARLINK-5426,PAYLOAD,2024-03-23 21:03:34,15.08838532,0.0001635,53.2175,321.9748,118.7203,241.3954,5.2518e-05,5.48e-06,0.0,0 STARLINK-5426,1 54802U 22175AW  24083.87748368  .00000548  00000-0  52518-4 0  9996,2 54802  53.2175 321.9748 0001635 118.7203 241.3954 15.08838532 70474,6917.885,95.438,540.881,538.619,0.0
